STARLINK-5996           
1 57227U 23094K   24228.34571171  .00003579  00000+0  27985-3 0  9995
2 57227  43.0050 254.9715 0002105 254.5250 105.5360 15.02536546 61173
STARLINK-6230           
1 57228U 23094L   24228.33794302  .00007275  00000+0  55304-3 0  9991
2 57228  43.0019 254.9121 0001533 271.4209  88.6458 15.02536136 61170
STARLINK-6233           
1 57229U 23094M   24228.34460877  .00010833  00000+0  81549-3 0  9994
2 57229  43.0019 254.9632 0001307 275.1567  84.9126 15.02548294 61354
STARLINK-6250           
1 57230U 23094N   24228.79773828  .00002357  00000+0  18953-3 0  9999
2 57230  43.0023 252.3417 0001420 274.7132  85.3548 15.02527506 61247
STARLINK-5840           
1 57231U 23094P   24228.77442141  .00002573  00000+0  20549-3 0  9993
2 57231  43.0024 252.1648 0001225 274.4718  85.5985 15.02529718 61247
STARLINK-5872           
1 57232U 23094Q   24228.77332399  .00017962  00000+0  13401-2 0  9993
2 57232  43.0027 252.1564 0001655 261.9623  98.1032 15.02571465 61903
STARLINK-5866           
1 57233U 23094R   24228.78108107  .00007302  00000+0  55467-3 0  9999
2 57233  43.0019 252.2185 0001386 263.0113  97.0572 15.02563673 61249
STARLINK-6368           
1 57234U 23094S   24228.77110525  .00005391  00000+0  41394-3 0  9996
2 57234  43.0019 252.1414 0001381 275.3350  84.7335 15.02528671 61247
STARLINK-6360           
1 57235U 23094T   24228.78330683  .00012792  00000+0  95935-3 0  9990
2 57235  42.9986 252.2358 0001465 252.7907 107.2775 15.02572138 61243
STARLINK-6315           
1 57236U 23094U   24228.31279757  .00011215  00000+0  84333-3 0  9993
2 57236  43.0016 242.5859 0001290 299.7250  60.3464 15.02563053 61493
STARLINK-6365           
1 57237U 23094V   24228.77780703  .00031181  00000+0  23156-2 0  9991
2 57237  43.0011 252.1932 0001520 306.3232  53.7470 15.02494419 61244
STARLINK-6334           
1 57238U 23094W   24228.30501849  .00007082  00000+0  53870-3 0  9993
2 57238  43.0025 242.5193 0002060 250.6424 109.4196 15.02542292 61490
STARLINK-6330           
1 57239U 23094X   24228.76997697  .00005870  00000+0  44871-3 0  9998
2 57239  43.0018 252.1324 0001069 306.1764  53.8979 15.02578610 61245
STARLINK-6351           
1 57240U 23094Y   24228.76144948  .00013012  00000+0  97504-3 0  9991
2 57240  43.0047 239.9221 0003504 277.5802  82.4643 15.02592366 61383
STARLINK-6349           
1 57241U 23094Z   24228.30945374  .00001035  00000+0  91706-4 0  9995
2 57241  43.0016 242.5548 0000644 279.0588  81.0181 15.02531763 61490
STARLINK-6306           
1 57242U 23094AA  24228.30612453 -.00000442  00000+0 -17703-4 0  9993
2 57242  42.9991 242.5273 0000696 286.8582  73.2184 15.02531443 61494
STARLINK-6346           
1 57243U 23094AB  24228.30834898  .00004424  00000+0  34241-3 0  9990
2 57243  42.9991 242.5448 0000854 287.5434  72.5315 15.02528208 61492
STARLINK-5610           
1 57244U 23094AC  24229.02962498  .00000667  00000+0  64432-4 0  9990
2 57244  43.0001 238.4934 0001517 237.2731 122.7965 15.02538977 61639
STARLINK-5587           
1 57245U 23094AD  24228.50112280  .00007424  00000+0  56410-3 0  9993
2 57245  43.0006 241.4118 0001379 279.5361  80.5325 15.02533323 61526
STARLINK-5049           
1 57246U 23094AE  24228.73817970  .00000756  00000+0  71057-4 0  9993
2 57246  43.0019 239.7463 0000993 277.0483  83.0247 15.02519993 61385
STARLINK-5039           
1 57247U 23094AF  24228.76034382 -.00004032  00000+0 -28329-3 0  9991
2 57247  43.0041 239.9131 0001869 276.0725  83.9904 15.02568783 61386
STARLINK-5514           
1 57248U 23094AG  24228.75704407  .00011867  00000+0  89140-3 0  9993
2 57248  43.0015 239.8903 0001524 244.4702 115.5983 15.02562745 61387
STARLINK-5517           
1 57249U 23094AH  24228.75481708  .00009195  00000+0  69470-3 0  9995
2 57249  43.0011 239.8266 0001025 290.1915  69.8817 15.02545255 61380
STARLINK-5488           
1 57250U 23094AJ  24228.74483907  .00009502  00000+0  71721-3 0  9993
2 57250  43.0025 239.8004 0001335 235.7308 124.3408 15.02551703 61380
STARLINK-5513           
1 57251U 23094AK  24228.75148936  .00014253  00000+0  10669-2 0  9997
2 57251  43.0006 239.8498 0001388 295.1896  64.8802 15.02574983 61388
STARLINK-5511           
1 57252U 23094AL  24228.53764658  .00010622  00000+0  80043-3 0  9999
2 57252  43.0007 240.8247 0000976 318.1824  41.8944 15.02526310 61533
STARLINK-5516           
1 57253U 23094AM  24228.75037932 -.00000781  00000+0 -42715-4 0  9994
2 57253  43.0010 239.8396 0001636 275.6773  84.3883 15.02541316 61385
STARLINK-5490           
1 57254U 23094AN  24228.53208768  .00010990  00000+0  82694-3 0  9998
2 57254  43.0021 240.7842 0001670 239.5684 120.4993 15.02555838 61538
STARLINK-5481           
1 57255U 23094AP  24228.53430341  .00001999  00000+0  16303-3 0  9996
2 57255  43.0027 240.7975 0001500 277.3186  82.7486 15.02525065 61537
STARLINK-5512           
1 57256U 23094AQ  24228.31488478 -.00000281  00000+0 -56898-5 0  9997
2 57256  43.0043 241.7516 0001719 262.0627  98.0020 15.02552368 61508
