OBJECT_NAME,OBJECT_ID,EPOCH,MEAN_MOTION,ECCENTRICITY,INCLINATION,RA_OF_ASC_NODE,ARG_OF_PERICENTER,MEAN_ANOMALY,EPHEMERIS_TYPE,CLASSIFICATION_TYPE,NORAD_CAT_ID,ELEMENT_SET_NO,REV_AT_EPOCH,BSTAR,MEAN_MOTION_DOT,MEAN_MOTION_DDOT
STARLINK-5996,2023-094K,2024-08-15T08:17:49.491744,15.02536546,.0002105,43.0050,254.9715,254.5250,105.5360,0,U,57227,999,6117,.27985E-3,.3579E-4,0
STARLINK-6230,2023-094L,2024-08-15T08:06:38.276928,15.02536136,.0001533,43.0019,254.9121,271.4209,88.6458,0,U,57228,999,6117,.55304E-3,.7275E-4,0
STARLINK-6233,2023-094M,2024-08-15T08:16:14.197728,15.02548294,.0001307,43.0019,254.9632,275.1567,84.9126,0,U,57229,999,6135,.81549E-3,.10833E-3,0
STARLINK-6250,2023-094N,2024-08-15T19:08:44.587392,15.02527506,.000142,43.0023,252.3417,274.7132,85.3548,0,U,57230,999,6124,.18953E-3,.2357E-4,0
STARLINK-5840,2023-094P,2024-08-15T18:35:10.009824,15.02529718,.0001225,43.0024,252.1648,274.4718,85.5985,0,U,57231,999,6124,.20549E-3,.2573E-4,0
STARLINK-5872,2023-094Q,2024-08-15T18:33:35.192736,15.02571465,.0001655,43.0027,252.1564,261.9623,98.1032,0,U,57232,999,6190,.13401E-2,.17962E-3,0
STARLINK-5866,2023-094R,2024-08-15T18:44:45.404448,15.02563673,.0001386,43.0019,252.2185,263.0113,97.0572,0,U,57233,999,6124,.55467E-3,.7302E-4,0
STARLINK-6368,2023-094S,2024-08-15T18:30:23.493600,15.02528671,.0001381,43.0019,252.1414,275.3350,84.7335,0,U,57234,999,6124,.41394E-3,.5391E-4,0
STARLINK-6360,2023-094T,2024-08-15T18:47:57.710112,15.02572138,.0001465,42.9986,252.2358,252.7907,107.2775,0,U,57235,999,6124,.95935E-3,.12792E-3,0
STARLINK-6315,2023-094U,2024-08-15T07:30:25.710048,15.02563053,.000129,43.0016,242.5859,299.7250,60.3464,0,U,57236,999,6149,.84333E-3,.11215E-3,0
STARLINK-6365,2023-094V,2024-08-15T18:40:02.527392,15.02494419,.000152,43.0011,252.1932,306.3232,53.7470,0,U,57237,999,6124,.23156E-2,.31181E-3,0
STARLINK-6334,2023-094W,2024-08-15T07:19:13.597536,15.02542292,.000206,43.0025,242.5193,250.6424,109.4196,0,U,57238,999,6149,.5387E-3,.7082E-4,0
STARLINK-6330,2023-094X,2024-08-15T18:28:46.010208,15.02578610,.0001069,43.0018,252.1324,306.1764,53.8979,0,U,57239,999,6124,.44871E-3,.587E-4,0
STARLINK-6351,2023-094Y,2024-08-15T18:16:29.235072,15.02592366,.0003504,43.0047,239.9221,277.5802,82.4643,0,U,57240,999,6138,.97504E-3,.13012E-3,0
STARLINK-6349,2023-094Z,2024-08-15T07:25:36.803136,15.02531763,.0000644,43.0016,242.5548,279.0588,81.0181,0,U,57241,999,6149,.91706E-4,.1035E-4,0
STARLINK-6306,2023-094AA,2024-08-15T07:20:49.159392,15.02531443,.0000696,42.9991,242.5273,286.8582,73.2184,0,U,57242,999,6149,-.17703E-4,-.442E-5,0
STARLINK-6346,2023-094AB,2024-08-15T07:24:01.351872,15.02528208,.0000854,42.9991,242.5448,287.5434,72.5315,0,U,57243,999,6149,.34241E-3,.4424E-4,0
STARLINK-5610,2023-094AC,2024-08-16T00:42:39.598272,15.02538977,.0001517,43.0001,238.4934,237.2731,122.7965,0,U,57244,999,6163,.64432E-4,.667E-5,0
STARLINK-5587,2023-094AD,2024-08-15T12:01:37.009920,15.02533323,.0001379,43.0006,241.4118,279.5361,80.5325,0,U,57245,999,6152,.5641E-3,.7424E-4,0
STARLINK-5049,2023-094AE,2024-08-15T17:42:58.726080,15.02519993,.0000993,43.0019,239.7463,277.0483,83.0247,0,U,57246,999,6138,.71057E-4,.756E-5,0
STARLINK-5039,2023-094AF,2024-08-15T18:14:53.706048,15.02568783,.0001869,43.0041,239.9131,276.0725,83.9904,0,U,57247,999,6138,-.28329E-3,-.4032E-4,0
STARLINK-5514,2023-094AG,2024-08-15T18:10:08.607648,15.02562745,.0001524,43.0015,239.8903,244.4702,115.5983,0,U,57248,999,6138,.8914E-3,.11867E-3,0
STARLINK-5517,2023-094AH,2024-08-15T18:06:56.195712,15.02545255,.0001025,43.0011,239.8266,290.1915,69.8817,0,U,57249,999,6138,.6947E-3,.9195E-4,0
STARLINK-5488,2023-094AJ,2024-08-15T17:52:34.095648,15.02551703,.0001335,43.0025,239.8004,235.7308,124.3408,0,U,57250,999,6138,.71721E-3,.9502E-4,0
STARLINK-5513,2023-094AK,2024-08-15T18:02:08.680704,15.02574983,.0001388,43.0006,239.8498,295.1896,64.8802,0,U,57251,999,6138,.10669E-2,.14253E-3,0
STARLINK-5511,2023-094AL,2024-08-15T12:54:12.664512,15.02526310,.0000976,43.0007,240.8247,318.1824,41.8944,0,U,57252,999,6153,.80043E-3,.10622E-3,0
STARLINK-5516,2023-094AM,2024-08-15T18:00:32.773248,15.02541316,.0001636,43.0010,239.8396,275.6773,84.3883,0,U,57253,999,6138,-.42715E-4,-.781E-5,0
STARLINK-5490,2023-094AN,2024-08-15T12:46:12.375552,15.02555838,.000167,43.0021,240.7842,239.5684,120.4993,0,U,57254,999,6153,.82694E-3,.1099E-3,0
STARLINK-5481,2023-094AP,2024-08-15T12:49:23.814624,15.02525065,.00015,43.0027,240.7975,277.3186,82.7486,0,U,57255,999,6153,.16303E-3,.1999E-4,0
STARLINK-5512,2023-094AQ,2024-08-15T07:33:26.044992,15.02552368,.0001719,43.0043,241.7516,262.0627,98.0020,0,U,57256,999,6150,-.56898E-5,-.281E-5,0
